ONEWEB-0229             
1 48779U 21045N   25192.78126250 -.00000153  00000+0 -44074-3 0  9999
2 48779  87.9071 327.0613 0002054 102.0093 258.1268 13.15548528199651
ONEWEB-0228             
1 48780U 21045P   25192.66255860  .00000143  00000+0  34619-3 0  9999
2 48780  87.9067 327.0594 0002048  98.6725 261.4637 13.15549876199554
ONEWEB-0232             
1 48781U 21045Q   25192.78919622 -.00000137  00000+0 -39692-3 0  9997
2 48781  87.9064 327.0296 0001947  98.7747 261.3604 13.15548404199899
ONEWEB-0231             
1 48782U 21045R   25192.76700593 -.00000054  00000+0 -17618-3 0  9993
2 48782  87.9060 327.0886 0002188  99.2924 260.8454 13.15548595199586
ONEWEB-0234             
1 48783U 21045S   25192.80010271 -.00000100  00000+0 -30286-3 0  9994
2 48783  87.9063 327.0454 0001382  67.8671 292.2606 13.15029492199720
ONEWEB-0238             
1 48784U 21045T   25192.80515231 -.00015379  00000+0 -40899-1 0  9994
2 48784  87.9056 327.0451 0001589  86.0702 274.0610 13.15638222199626
ONEWEB-0240             
1 48785U 21045U   25192.82643381  .00000175  00000+0  42968-3 0  9992
2 48785  87.9066 327.0206 0002218  91.2586 268.8799 13.15547887199652
ONEWEB-0246             
1 48786U 21045V   25192.82088596  .00000068  00000+0  14611-3 0  9999
2 48786  87.9074 327.0335 0001977 103.6362 256.4989 13.15547781199529
